{"type": "FeatureCollection", "features": [ {"type": "Feature", "properties": {"norad_id": 35829, "name": "COSMOS 2251 DEB", "group": "cosmos-2251-debris", "lat": 48.78550630361768, "lon": -99.14465601339104, "alt_km": 632.9361834419551, "timestamp": "2025-12-12T03:50:52.815106+00:00", "meta": {"OBJECT_NAME": "COSMOS 2251 DEB", "OBJECT_ID": "1993-036ATB", "EPOCH": "2025-12-08T14:41:25.732032", "MEAN_MOTION": 14.76103447, "ECCENTRICITY": 0.0006283, "INCLINATION": 74.0249, "RA_OF_ASC_NODE": 106.8945, "ARG_OF_PERICENTER": 174.4564, "MEAN_ANOMALY": 185.6681, "EPHEMERIS_TYPE": 0, "CLASSIFICATION_TYPE": "U", "NORAD_CAT_ID": 35829, "ELEMENT_SET_NO": 999, "REV_AT_EPOCH": 87714, "BSTAR": 0.0032694, "MEAN_MOTION_DOT": 0.0002262, "MEAN_MOTION_DDOT": 0}, "tle": {"line1": "1 35829U 93036ATB 25342.61210338  .00022620  00000+0  32694-2 0  9995", "line2": "2 35829  74.0249 106.8945 0006283 174.4564 185.6681 14.76103447877147"}}, "geometry": {"type": "Point", "coordinates": [-99.14465601339104, 48.78550630361768]}}, {"type": "Feature", "properties": {"norad_id": 35830, "name": "COSMOS 2251 DEB", "group": "cosmos-2251-debris", "lat": 0.9834392828827305, "lon": 87.20818798411224, "alt_km": 765.6853718746615, "timestamp": "2025-12-12T03:50:52.815116+00:00", "meta": {"OBJECT_NAME": "COSMOS 2251 DEB", "OBJECT_ID": "1993-036ATC", "EPOCH": "2025-12-06T12:06:38.215008", "MEAN_MOTION": 14.23927917, "ECCENTRICITY": 0.01224789, "INCLINATION": 73.8624, "RA_OF_ASC_NODE": 277.7805, "ARG_OF_PERICENTER": 247.2482, "MEAN_ANOMALY": 111.5683, "EPHEMERIS_TYPE": 0, "CLASSIFICATION_TYPE": "U", "NORAD_CAT_ID": 35830, "ELEMENT_SET_NO": 999, "REV_AT_EPOCH": 61175, "BSTAR": 0.0019622096, "MEAN_MOTION_DOT": 4.837e-05, "MEAN_MOTION_DDOT": 0}, "tle": {"line1": "1 35830U 93036ATC 25340.50460897  .00004837  00000+0  19622-2 0  9996", "line2": "2 35830  73.8624 277.7805 0122478 247.2482 111.5683 14.23927917611750"}}, "geometry": {"type": "Point", "coordinates": [87.20818798411224, 0.9834392828827305]}}, {"type": "Feature", "properties": {"norad_id": 35834, "name": "COSMOS 2251 DEB", "group": "cosmos-2251-debris", "lat": 38.34750073793026, "lon": -41.24750043745111, "alt_km": 812.6948983002758, "timestamp": "2025-12-12T03:50:52.815127+00:00", "meta": {"OBJECT_NAME": "COSMOS 2251 DEB", "OBJECT_ID": "1993-036ATG", "EPOCH": "2025-12-11T03:56:52.139040", "MEAN_MOTION": 14.12976898, "ECCENTRICITY": 0.0109236, "INCLINATION": 73.9315, "RA_OF_ASC_NODE": 307.3439, "ARG_OF_PERICENTER": 107.9272, "MEAN_ANOMALY": 269.9221, "EPHEMERIS_TYPE": 0, "CLASSIFICATION_TYPE": "U", "NORAD_CAT_ID": 35834, "ELEMENT_SET_NO": 999, "REV_AT_EPOCH": 66241, "BSTAR": 0.00039389964, "MEAN_MOTION_DOT": 7.52e-06, "MEAN_MOTION_DDOT": 0}, "tle": {"line1": "1 35834U 93036ATG 25345.16449235  .00000752  00000+0  39390-3 0  9997", "line2": "2 35834  73.9315 307.3439 0109236 107.9272 269.9221 14.12976898662416"}}, "geometry": {"type": "Point", "coordinates": [-41.24750043745111, 38.34750073793026]}}, {"type": "Feature", "properties": {"norad_id": 35835, "name": "COSMOS 2251 DEB", "group": "cosmos-2251-debris", "lat": 37.47463642632638, "lon": -77.93594481247112, "alt_km": 742.104781877304, "timestamp": "2025-12-12T03:50:52.815137+00:00", "meta": {"OBJECT_NAME": "COSMOS 2251 DEB", "OBJECT_ID": "1993-036ATH", "EPOCH": "2025-12-11T12:02:32.949600", "MEAN_MOTION": 13.82870055, "ECCENTRICITY": 0.02901062, "INCLINATION": 74.0631, "RA_OF_ASC_NODE": 270.5178, "ARG_OF_PERICENTER": 52.3891, "MEAN_ANOMALY": 310.3189, "EPHEMERIS_TYPE": 0, "CLASSIFICATION_TYPE": "U", "NORAD_CAT_ID": 35835, "ELEMENT_SET_NO": 999, "REV_AT_EPOCH": 61682, "BSTAR": 0.0024457377, "MEAN_MOTION_DOT": 3.663e-05, "MEAN_MOTION_DDOT": 0}, "tle": {"line1": "1 35835U 93036ATH 25345.50177025  .00003663  00000+0  24457-2 0  9992", "line2": "2 35835  74.0631 270.5178 0290106  52.3891 310.3189 13.82870055616820"}}, "geometry": {"type": "Point", "coordinates": [-77.93594481247112, 37.47463642632638]}}, {"type": "Feature", "properties": {"norad_id": 35836, "name": "COSMOS 2251 DEB", "group": "cosmos-2251-debris", "lat": 67.70321188282621, "lon": -141.64875032425448, "alt_km": 667.0754307724001, "timestamp": "2025-12-12T03:50:52.815147+00:00", "meta": {"OBJECT_NAME": "COSMOS 2251 DEB", "OBJECT_ID": "1993-036ATJ", "EPOCH": "2025-12-10T18:51:50.352480", "MEAN_MOTION": 14.70892448, "ECCENTRICITY": 0.00244147, "INCLINATION": 74.0314, "RA_OF_ASC_NODE": 176.7294, "ARG_OF_PERICENTER": 235.542, "MEAN_ANOMALY": 124.3445, "EPHEMERIS_TYPE": 0, "CLASSIFICATION_TYPE": "U", "NORAD_CAT_ID": 35836, "ELEMENT_SET_NO": 999, "REV_AT_EPOCH": 63491, "BSTAR": 0.0027962773, "MEAN_MOTION_DOT": 0.00017206, "MEAN_MOTION_DDOT": 0}, "tle": {"line1": "1 35836U 93036ATJ 25344.78599945  .00017206  00000+0  27963-2 0  9994", "line2": "2 35836  74.0314 176.7294 0024414 235.5420 124.3445 14.70892448634911"}}, "geometry": {"type": "Point", "coordinates": [-141.64875032425448, 67.70321188282621]}}, {"type": "Feature", "properties": {"norad_id": 35837, "name": "COSMOS 2251 DEB", "group": "cosmos-2251-debris", "lat": -45.50170307833715, "lon": 45.89036721526936, "alt_km": 1062.2058623418934, "timestamp": "2025-12-12T03:50:52.815158+00:00", "meta": {"OBJECT_NAME": "COSMOS 2251 DEB", "OBJECT_ID": "1993-036ATK", "EPOCH": "2025-12-09T22:01:37.127712", "MEAN_MOTION": 13.63437069, "ECCENTRICITY": 0.04220669, "INCLINATION": 73.7216, "RA_OF_ASC_NODE": 212.3216, "ARG_OF_PERICENTER": 133.5531, "MEAN_ANOMALY": 246.304, "EPHEMERIS_TYPE": 0, "CLASSIFICATION_TYPE": "U", "NORAD_CAT_ID": 35837, "ELEMENT_SET_NO": 999, "REV_AT_EPOCH": 57938, "BSTAR": 0.0025074688, "MEAN_MOTION_DOT": 3.597e-05, "MEAN_MOTION_DDOT": 0}, "tle": {"line1": "1 35837U 93036ATK 25343.91779083  .00003597  00000+0  25075-2 0  9992", "line2": "2 35837  73.7216 212.3216 0422066 133.5531 246.3040 13.63437069579385"}}, "geometry": {"type": "Point", "coordinates": [45.89036721526936, -45.50170307833715]}}, {"type": "Feature", "properties": {"norad_id": 35839, "name": "COSMOS 2251 DEB", "group": "cosmos-2251-debris", "lat": -27.73963289325676, "lon": 153.33670166689484, "alt_km": 417.10768438054583, "timestamp": "2025-12-12T03:50:52.815168+00:00", "meta": {"OBJECT_NAME": "COSMOS 2251 DEB", "OBJECT_ID": "1993-036ATM", "EPOCH": "2025-12-11T14:34:16.760352", "MEAN_MOTION": 15.51384114, "ECCENTRICITY": 0.00013721, "INCLINATION": 74.2074, "RA_OF_ASC_NODE": 325.9799, "ARG_OF_PERICENTER": 102.2603, "MEAN_ANOMALY": 257.8766, "EPHEMERIS_TYPE": 0, "CLASSIFICATION_TYPE": "U", "NORAD_CAT_ID": 35839, "ELEMENT_SET_NO": 999, "REV_AT_EPOCH": 88550, "BSTAR": 0.0072852422, "MEAN_MOTION_DOT": 0.004548, "MEAN_MOTION_DDOT": 0}, "tle": {"line1": "1 35839U 93036ATM 25345.60713843  .00454800  00000+0  72852-2 0  9996", "line2": "2 35839  74.2074 325.9799 0001372 102.2603 257.8766 15.51384114885505"}}, "geometry": {"type": "Point", "coordinates": [153.33670166689484, -27.73963289325676]}}, {"type": "Feature", "properties": {"norad_id": 35840, "name": "COSMOS 2251 DEB", "group": "cosmos-2251-debris", "lat": -49.233853463238255, "lon": -1.215084760153688, "alt_km": 854.0119069693219, "timestamp": "2025-12-12T03:50:52.815178+00:00", "meta": {"OBJECT_NAME": "COSMOS 2251 DEB", "OBJECT_ID": "1993-036ATN", "EPOCH": "2025-12-11T05:04:15.468096", "MEAN_MOTION": 14.37804133, "ECCENTRICITY": 0.01162855, "INCLINATION": 73.9308, "RA_OF_ASC_NODE": 161.0116, "ARG_OF_PERICENTER": 63.8403, "MEAN_ANOMALY": 297.4655, "EPHEMERIS_TYPE": 0, "CLASSIFICATION_TYPE": "U", "NORAD_CAT_ID": 35840, "ELEMENT_SET_NO": 999, "REV_AT_EPOCH": 85269, "BSTAR": 0.0028955438, "MEAN_MOTION_DOT": 9.419e-05, "MEAN_MOTION_DDOT": 0}, "tle": {"line1": "1 35840U 93036ATN 25345.21129014  .00009419  00000+0  28955-2 0  9993", "line2": "2 35840  73.9308 161.0116 0116285  63.8403 297.4655 14.37804133852697"}}, "geometry": {"type": "Point", "coordinates": [-1.215084760153688, -49.233853463238255]}}, {"type": "Feature", "properties": {"norad_id": 35883, "name": "COSMOS 2251 DEB", "group": "cosmos-2251-debris", "lat": -24.19366281809642, "lon": -101.48627593511459, "alt_km": 669.4375369192339, "timestamp": "2025-12-12T03:50:52.815188+00:00", "meta": {"OBJECT_NAME": "COSMOS 2251 DEB", "OBJECT_ID": "1993-036ATW", "EPOCH": "2025-12-08T12:53:27.979296", "MEAN_MOTION": 14.5058807, "ECCENTRICITY": 0.00839123, "INCLINATION": 74.0248, "RA_OF_ASC_NODE": 77.932, "ARG_OF_PERICENTER": 208.211, "MEAN_ANOMALY": 163.6192, "EPHEMERIS_TYPE": 0, "CLASSIFICATION_TYPE": "U", "NORAD_CAT_ID": 35883, "ELEMENT_SET_NO": 999, "REV_AT_EPOCH": 62325, "BSTAR": 0.00065719246, "MEAN_MOTION_DOT": 2.667e-05, "MEAN_MOTION_DDOT": 0}, "tle": {"line1": "1 35883U 93036ATW 25342.53712939  .00002667  00000+0  65719-3 0  9994", "line2": "2 35883  74.0248  77.9320 0083912 208.2110 163.6192 14.50588070623253"}}, "geometry": {"type": "Point", "coordinates": [-101.48627593511459, -24.19366281809642]}}, {"type": "Feature", "properties": {"norad_id": 35884, "name": "COSMOS 2251 DEB", "group": "cosmos-2251-debris", "lat": -22.145752085268988, "lon": -29.651174686366925, "alt_km": 876.7381907995032, "timestamp": "2025-12-12T03:50:52.815198+00:00", "meta": {"OBJECT_NAME": "COSMOS 2251 DEB", "OBJECT_ID": "1993-036ATX", "EPOCH": "2025-12-09T17:00:47.209536", "MEAN_MOTION": 14.25629404, "ECCENTRICITY": 0.01087033, "INCLINATION": 73.9912, "RA_OF_ASC_NODE": 341.4952, "ARG_OF_PERICENTER": 129.2859, "MEAN_ANOMALY": 231.7992, "EPHEMERIS_TYPE": 0, "CLASSIFICATION_TYPE": "U", "NORAD_CAT_ID": 35884, "ELEMENT_SET_NO": 999, "REV_AT_EPOCH": 22314, "BSTAR": 0.001725321, "MEAN_MOTION_DOT": 4.326e-05, "MEAN_MOTION_DDOT": 0}, "tle": {"line1": "1 35884U 93036ATX 25343.70887974  .00004326  00000+0  17253-2 0  9990", "line2": "2 35884  73.9912 341.4952 0108703 129.2859 231.7992 14.25629404223146"}}, "geometry": {"type": "Point", "coordinates": [-29.651174686366925, -22.145752085268988]}}]}